ONEWEB-0694             
1 56722U 23068N   23316.79977854  .00003377  00000+0  45903-3 0  9995
2 56722  86.7250  68.2591 0013516 334.2973  25.7575 14.78480564 26196
ONEWEB-0696             
1 56723U 23068P   23317.25001157  .00099939  00000+0  26284+0 0  9998
2 56723  87.8990  87.7384 0001300  61.4373 260.2358 13.15474996 25564
ONEWEB-0703             
1 56724U 23068Q   23316.88736546  .00000131  00000+0  31519-3 0  9991
2 56724  87.9003  87.8303 0001454  46.0086 314.1164 13.15548496 25407
ONEWEB-0721             
1 56725U 23068R   23317.37808145  .00003051  00000+0  36719-3 0  9993
2 56725  86.6780  66.6193 0009372 330.6141  29.4554 14.83570355 27045
